{"type": "FeatureCollection", "features": [ {"type": "Feature", "properties": {"norad_id": 30272, "name": "FENGYUN 1C DEB", "group": "fengyun-1c-debris", "lat": 8.102633068950439, "lon": -120.87535374139097, "alt_km": 836.8737898018844, "timestamp": "2025-12-16T03:53:27.330697+00:00", "meta": {"OBJECT_NAME": "FENGYUN 1C DEB", "OBJECT_ID": "1999-025YH", "EPOCH": "2025-12-15T03:19:26.242752", "MEAN_MOTION": 14.14723413, "ECCENTRICITY": 0.00507983, "INCLINATION": 98.9011, "RA_OF_ASC_NODE": 56.8258, "ARG_OF_PERICENTER": 97.1431, "MEAN_ANOMALY": 263.5521, "EPHEMERIS_TYPE": 0, "CLASSIFICATION_TYPE": "U", "NORAD_CAT_ID": 30272, "ELEMENT_SET_NO": 999, "REV_AT_EPOCH": 96890, "BSTAR": 0.00095549489, "MEAN_MOTION_DOT": 1.819e-05, "MEAN_MOTION_DDOT": 0}, "tle": {"line1": "1 30272U 99025YH  25349.13849818  .00001819  00000+0  95549-3 0  9997", "line2": "2 30272  98.9011  56.8258 0050798  97.1431 263.5521 14.14723413968908"}}, "geometry": {"type": "Point", "coordinates": [-120.87535374139097, 8.102633068950439]}}, {"type": "Feature", "properties": {"norad_id": 30273, "name": "FENGYUN 1C DEB", "group": "fengyun-1c-debris", "lat": 0.44891658647747334, "lon": 4.554752621485933, "alt_km": 909.6191767135833, "timestamp": "2025-12-16T03:53:27.330708+00:00", "meta": {"OBJECT_NAME": "FENGYUN 1C DEB", "OBJECT_ID": "1999-025YJ", "EPOCH": "2025-12-15T07:26:54.125952", "MEAN_MOTION": 14.02664353, "ECCENTRICITY": 0.00603934, "INCLINATION": 98.8406, "RA_OF_ASC_NODE": 3.7979, "ARG_OF_PERICENTER": 242.2275, "MEAN_ANOMALY": 139.0132, "EPHEMERIS_TYPE": 0, "CLASSIFICATION_TYPE": "U", "NORAD_CAT_ID": 30273, "ELEMENT_SET_NO": 999, "REV_AT_EPOCH": 96565, "BSTAR": 0.00045290308, "MEAN_MOTION_DOT": 6.67e-06, "MEAN_MOTION_DDOT": 0}, "tle": {"line1": "1 30273U 99025YJ  25349.31034868  .00000667  00000+0  45290-3 0  9997", "line2": "2 30273  98.8406   3.7979 0060393 242.2275 139.0132 14.02664353965656"}}, "geometry": {"type": "Point", "coordinates": [4.554752621485933, 0.44891658647747334]}}, {"type": "Feature", "properties": {"norad_id": 30274, "name": "FENGYUN 1C DEB", "group": "fengyun-1c-debris", "lat": 65.07228422982493, "lon": 98.55116760568313, "alt_km": 716.1629728558082, "timestamp": "2025-12-16T03:53:27.330718+00:00", "meta": {"OBJECT_NAME": "FENGYUN 1C DEB", "OBJECT_ID": "1999-025YK", "EPOCH": "2025-12-15T07:59:12.888384", "MEAN_MOTION": 14.51689035, "ECCENTRICITY": 0.00048083, "INCLINATION": 99.3009, "RA_OF_ASC_NODE": 118.2807, "ARG_OF_PERICENTER": 205.2757, "MEAN_ANOMALY": 209.8643, "EPHEMERIS_TYPE": 0, "CLASSIFICATION_TYPE": "U", "NORAD_CAT_ID": 30274, "ELEMENT_SET_NO": 999, "REV_AT_EPOCH": 98248, "BSTAR": 0.0016663725, "MEAN_MOTION_DOT": 6.641e-05, "MEAN_MOTION_DDOT": 0}, "tle": {"line1": "1 30274U 99025YK  25349.33278806  .00006641  00000+0  16664-2 0  9992", "line2": "2 30274  99.3009 118.2807 0004808 205.2757 209.8643 14.51689035982488"}}, "geometry": {"type": "Point", "coordinates": [98.55116760568313, 65.07228422982493]}}, {"type": "Feature", "properties": {"norad_id": 30275, "name": "FENGYUN 1C DEB", "group": "fengyun-1c-debris", "lat": -58.52485413209895, "lon": 88.83829919947195, "alt_km": 763.7383034575832, "timestamp": "2025-12-16T03:53:27.330728+00:00", "meta": {"OBJECT_NAME": "FENGYUN 1C DEB", "OBJECT_ID": "1999-025YL", "EPOCH": "2025-12-15T05:02:49.799040", "MEAN_MOTION": 14.45335746, "ECCENTRICITY": 0.00398726, "INCLINATION": 98.6284, "RA_OF_ASC_NODE": 73.5106, "ARG_OF_PERICENTER": 179.4118, "MEAN_ANOMALY": 210.9729, "EPHEMERIS_TYPE": 0, "CLASSIFICATION_TYPE": "U", "NORAD_CAT_ID": 30275, "ELEMENT_SET_NO": 999, "REV_AT_EPOCH": 98120, "BSTAR": 0.0013170738, "MEAN_MOTION_DOT": 4.629e-05, "MEAN_MOTION_DDOT": 0}, "tle": {"line1": "1 30275U 99025YL  25349.21029860  .00004629  00000+0  13171-2 0  9998", "line2": "2 30275  98.6284  73.5106 0039872 179.4118 210.9729 14.45335746981200"}}, "geometry": {"type": "Point", "coordinates": [88.83829919947195, -58.52485413209895]}}, {"type": "Feature", "properties": {"norad_id": 30276, "name": "FENGYUN 1C DEB", "group": "fengyun-1c-debris", "lat": 16.560067067884905, "lon": 59.11782104247987, "alt_km": 794.5410293899076, "timestamp": "2025-12-16T03:53:27.330739+00:00", "meta": {"OBJECT_NAME": "FENGYUN 1C DEB", "OBJECT_ID": "1999-025YM", "EPOCH": "2025-12-15T04:15:15.346944", "MEAN_MOTION": 14.27043107, "ECCENTRICITY": 0.00248833, "INCLINATION": 98.8592, "RA_OF_ASC_NODE": 60.7789, "ARG_OF_PERICENTER": 84.6453, "MEAN_ANOMALY": 275.7565, "EPHEMERIS_TYPE": 0, "CLASSIFICATION_TYPE": "U", "NORAD_CAT_ID": 30276, "ELEMENT_SET_NO": 999, "REV_AT_EPOCH": 97565, "BSTAR": 0.0010322018, "MEAN_MOTION_DOT": 2.477e-05, "MEAN_MOTION_DDOT": 0}, "tle": {"line1": "1 30276U 99025YM  25349.17726096  .00002477  00000+0  10322-2 0  9993", "line2": "2 30276  98.8592  60.7789 0024883  84.6453 275.7565 14.27043107975651"}}, "geometry": {"type": "Point", "coordinates": [59.11782104247987, 16.560067067884905]}}, {"type": "Feature", "properties": {"norad_id": 30277, "name": "FENGYUN 1C DEB", "group": "fengyun-1c-debris", "lat": -74.84668218536659, "lon": 96.53434267995706, "alt_km": 890.1019680615391, "timestamp": "2025-12-16T03:53:27.330749+00:00", "meta": {"OBJECT_NAME": "FENGYUN 1C DEB", "OBJECT_ID": "1999-025YN", "EPOCH": "2025-12-15T04:47:23.970336", "MEAN_MOTION": 14.1359397, "ECCENTRICITY": 0.01241134, "INCLINATION": 98.9733, "RA_OF_ASC_NODE": 59.8758, "ARG_OF_PERICENTER": 170.8776, "MEAN_ANOMALY": 254.5181, "EPHEMERIS_TYPE": 0, "CLASSIFICATION_TYPE": "U", "NORAD_CAT_ID": 30277, "ELEMENT_SET_NO": 999, "REV_AT_EPOCH": 96824, "BSTAR": 0.0010998265, "MEAN_MOTION_DOT": 2.188e-05, "MEAN_MOTION_DDOT": 0}, "tle": {"line1": "1 30277U 99025YN  25349.19958299  .00002188  00000+0  10998-2 0  9996", "line2": "2 30277  98.9733  59.8758 0124113 170.8776 254.5181 14.13593970968247"}}, "geometry": {"type": "Point", "coordinates": [96.53434267995706, -74.84668218536659]}}, {"type": "Feature", "properties": {"norad_id": 30279, "name": "FENGYUN 1C DEB", "group": "fengyun-1c-debris", "lat": -46.080295677808884, "lon": 95.37966028891347, "alt_km": 973.1905821832142, "timestamp": "2025-12-16T03:53:27.330759+00:00", "meta": {"OBJECT_NAME": "FENGYUN 1C DEB", "OBJECT_ID": "1999-025YQ", "EPOCH": "2025-12-15T08:48:54.299232", "MEAN_MOTION": 14.23110574, "ECCENTRICITY": 0.02198265, "INCLINATION": 99.1499, "RA_OF_ASC_NODE": 284.188, "ARG_OF_PERICENTER": 65.1862, "MEAN_ANOMALY": 51.0838, "EPHEMERIS_TYPE": 0, "CLASSIFICATION_TYPE": "U", "NORAD_CAT_ID": 30279, "ELEMENT_SET_NO": 999, "REV_AT_EPOCH": 97648, "BSTAR": 0.00063374382, "MEAN_MOTION_DOT": 1.784e-05, "MEAN_MOTION_DDOT": 0}, "tle": {"line1": "1 30279U 99025YQ  25349.36729513  .00001784  00000+0  63374-3 0  9990", "line2": "2 30279  99.1499 284.1880 0219826  65.1862  51.0838 14.23110574976488"}}, "geometry": {"type": "Point", "coordinates": [95.37966028891347, -46.080295677808884]}}, {"type": "Feature", "properties": {"norad_id": 30280, "name": "FENGYUN 1C DEB", "group": "fengyun-1c-debris", "lat": 50.132869361171984, "lon": -31.254639756015507, "alt_km": 895.4602637209255, "timestamp": "2025-12-16T03:53:27.330770+00:00", "meta": {"OBJECT_NAME": "FENGYUN 1C DEB", "OBJECT_ID": "1999-025YR", "EPOCH": "2025-12-14T21:03:37.228608", "MEAN_MOTION": 13.98330636, "ECCENTRICITY": 0.00803875, "INCLINATION": 98.7753, "RA_OF_ASC_NODE": 338.1748, "ARG_OF_PERICENTER": 323.6142, "MEAN_ANOMALY": 103.346, "EPHEMERIS_TYPE": 0, "CLASSIFICATION_TYPE": "U", "NORAD_CAT_ID": 30280, "ELEMENT_SET_NO": 999, "REV_AT_EPOCH": 96436, "BSTAR": 8.7867765e-05, "MEAN_MOTION_DOT": 8.7e-07, "MEAN_MOTION_DDOT": 0}, "tle": {"line1": "1 30280U 99025YR  25348.87751422  .00000087  00000+0  87868-4 0  9991", "line2": "2 30280  98.7753 338.1748 0080387 323.6142 103.3460 13.98330636964362"}}, "geometry": {"type": "Point", "coordinates": [-31.254639756015507, 50.132869361171984]}}, {"type": "Feature", "properties": {"norad_id": 30281, "name": "FENGYUN 1C DEB", "group": "fengyun-1c-debris", "lat": 59.83506297023359, "lon": -35.49416618479912, "alt_km": 871.5697764328143, "timestamp": "2025-12-16T03:53:27.330780+00:00", "meta": {"OBJECT_NAME": "FENGYUN 1C DEB", "OBJECT_ID": "1999-025YS", "EPOCH": "2025-12-15T05:31:51.813984", "MEAN_MOTION": 14.1047715, "ECCENTRICITY": 0.00280105, "INCLINATION": 98.757, "RA_OF_ASC_NODE": 338.9777, "ARG_OF_PERICENTER": 229.7795, "MEAN_ANOMALY": 143.295, "EPHEMERIS_TYPE": 0, "CLASSIFICATION_TYPE": "U", "NORAD_CAT_ID": 30281, "ELEMENT_SET_NO": 999, "REV_AT_EPOCH": 97256, "BSTAR": 0.0002105626, "MEAN_MOTION_DOT": 3.33e-06, "MEAN_MOTION_DDOT": 0}, "tle": {"line1": "1 30281U 99025YS  25349.23046081  .00000333  00000+0  21056-3 0  9991", "line2": "2 30281  98.7570 338.9777 0028010 229.7795 143.2950 14.10477150972561"}}, "geometry": {"type": "Point", "coordinates": [-35.49416618479912, 59.83506297023359]}}, {"type": "Feature", "properties": {"norad_id": 30282, "name": "FENGYUN 1C DEB", "group": "fengyun-1c-debris", "lat": -23.492938275565496, "lon": 169.5204927990414, "alt_km": 983.4282396841263, "timestamp": "2025-12-16T03:53:27.330790+00:00", "meta": {"OBJECT_NAME": "FENGYUN 1C DEB", "OBJECT_ID": "1999-025YT", "EPOCH": "2025-12-15T06:37:40.573056", "MEAN_MOTION": 14.12978108, "ECCENTRICITY": 0.021014, "INCLINATION": 98.5016, "RA_OF_ASC_NODE": 352.4061, "ARG_OF_PERICENTER": 354.8317, "MEAN_ANOMALY": 26.0155, "EPHEMERIS_TYPE": 0, "CLASSIFICATION_TYPE": "U", "NORAD_CAT_ID": 30282, "ELEMENT_SET_NO": 999, "REV_AT_EPOCH": 97387, "BSTAR": 0.00037601645, "MEAN_MOTION_DOT": 8.22e-06, "MEAN_MOTION_DDOT": 0}, "tle": {"line1": "1 30282U 99025YT  25349.27616404  .00000822  00000+0  37602-3 0  9995", "line2": "2 30282  98.5016 352.4061 0210140 354.8317  26.0155 14.12978108973870"}}, "geometry": {"type": "Point", "coordinates": [169.5204927990414, -23.492938275565496]}}]}